NORAD_CAT_ID,OBJECT_NAME,OBJECT_TYPE,EPOCH,MEAN_MOTION,ECCENTRICITY,INCLINATION,RA_OF_ASC_NODE,ARG_OF_PERICENTER,MEAN_ANOMALY,BSTAR,MEAN_MOTION_DOT,MEAN_MOTION_DDOT,TLE_LINE0,TLE_LINE1,TLE_LINE2,SEMIMAJOR_AXIS,PERIOD,APOGEE,PERIGEE,DECAYED
56794.0,STARLINK-6060,PAYLOAD,2024-05-26 10:36:52,14.98328585,0.0002958,69.9983,168.9831,266.7489,93.3331,2.4608e-05,2.01e-06,0.0,0 STARLINK-6060,1 56794U 23078AD  24147.44227837  .00000201  00000-0  24608-4 0  9993,2 56794  69.9983 168.9831 0002958 266.7489  93.3331 14.98328585 55475,6950.197,96.107,574.118,570.006,0.0
56794.0,STARLINK-6060,PAYLOAD,2024-05-27 04:14:21,14.98327677,0.0002743,69.9987,167.1326,255.2113,104.8742,7.7802e-05,8.35e-06,0.0,0 STARLINK-6060,1 56794U 23078AD  24148.17663705  .00000835  00000-0  77802-4 0  9999,2 56794  69.9987 167.1326 0002743 255.2113 104.8742 14.98327677 55844,6950.2,96.107,573.972,570.159,0.0
56794.0,STARLINK-6060,PAYLOAD,2024-05-27 10:38:53,14.98327628,0.0002827,69.9985,166.4588,262.4443,97.6395,7.433e-05,7.94e-06,0.0,0 STARLINK-6060,1 56794U 23078AD  24148.44367780  .00000794  00000-0  74330-4 0  9990,2 56794  69.9985 166.4588 0002827 262.4443  97.6395 14.98327628 55628,6950.2,96.107,574.03,570.1,0.0
56794.0,STARLINK-6060,PAYLOAD,2024-05-27 18:39:34,14.98329576,0.0003045,69.9983,165.6164,269.8325,90.2485,4.8191e-05,4.82e-06,0.0,0 STARLINK-6060,1 56794U 23078AD  24148.77747713  .00000482  00000-0  48191-4 0  9994,2 56794  69.9983 165.6164 0003045 269.8325  90.2485 14.98329576 55678,6950.194,96.107,574.176,569.943,0.0
56794.0,STARLINK-6060,PAYLOAD,2024-05-28 04:16:21,14.98338355,0.0003177,69.9981,164.6069,270.0789,90.0006,7.1478e-05,7.6e-06,0.0,0 STARLINK-6060,1 56794U 23078AD  24149.17802876  .00000760  00000-0  71478-4 0  9994,2 56794  69.9981 164.6069 0003177 270.0789  90.0006 14.98338355 55990,6950.167,96.106,574.24,569.824,0.0
56794.0,STARLINK-6060,PAYLOAD,2024-05-28 10:40:53,14.98340032,0.0003146,69.9982,163.9339,269.6809,90.3989,8.6079e-05,9.34e-06,0.0,0 STARLINK-6060,1 56794U 23078AD  24149.44506563  .00000934  00000-0  86079-4 0  9994,2 56794  69.9982 163.9339 0003146 269.6809  90.3989 14.98340032 55770,6950.162,96.106,574.213,569.84,0.0
56794.0,STARLINK-6060,PAYLOAD,2024-05-29 04:18:30,14.98240871,0.0003026,69.9983,162.0826,264.2315,95.8499,-0.0010278,-0.00012307,0.0,0 STARLINK-6060,1 56794U 23078AD  24150.17951493 -.00012307  00000-0 -10278-2 0  9997,2 56794  69.9983 162.0826 0003026 264.2315  95.8499 14.98240871 56140,6950.469,96.113,574.437,570.23,0.0
56794.0,STARLINK-6060,PAYLOAD,2024-05-29 10:42:56,14.98327549,0.0003415,69.9984,161.4073,265.5007,94.5762,2.3214e-05,1.84e-06,0.0,0 STARLINK-6060,1 56794U 23078AD  24150.44648898  .00000184  00000-0  23214-4 0  9993,2 56794  69.9984 161.4073 0003415 265.5007  94.5762 14.98327549 56183,6950.2,96.107,574.439,569.692,0.0
56794.0,STARLINK-6060,PAYLOAD,2024-05-30 10:44:57,14.98329879,0.00029,69.9985,158.8834,270.3519,89.7308,-3.6587e-06,-1.37e-06,0.0,0 STARLINK-6060,1 56794U 23078AD  24151.44789313 -.00000137  00000-0 -36587-5 0  9990,2 56794  69.9985 158.8834 0002900 270.3519  89.7308 14.98329879 56336,6950.193,96.107,574.074,570.043,0.0
56794.0,STARLINK-6060,PAYLOAD,2024-05-31 04:22:26,14.98306966,0.0002671,69.9979,157.0315,260.1633,99.9225,0.00048754,5.725e-05,0.0,0 STARLINK-6060,1 56794U 23078AD  24152.18225470  .00005725  00000-0  48754-3 0  9994,2 56794  69.9979 157.0315 0002671 260.1633  99.9225 14.98306966 56448,6950.264,96.108,573.986,570.273,0.0
56794.0,STARLINK-6060,PAYLOAD,2024-05-31 10:46:59,14.98311392,0.0002831,69.998,156.3582,263.627,96.4567,0.00048054,5.643e-05,0.0,0 STARLINK-6060,1 56794U 23078AD  24152.44929546  .00005643  00000-0  48054-3 0  9990,2 56794  69.9980 156.3582 0002831 263.6270  96.4567 14.98311392 56227,6950.25,96.108,574.083,570.148,0.0
56794.0,STARLINK-6060,PAYLOAD,2024-05-31 17:11:32,14.98296777,0.0003032,69.9981,155.6849,268.4086,91.6726,0.00081175,9.598e-05,0.0,0 STARLINK-6060,1 56794U 23078AD  24152.71634266  .00009598  00000-0  81175-3 0  9996,2 56794  69.9981 155.6849 0003032 268.4086  91.6726 14.98296777 56265,6950.296,96.109,574.268,570.053,0.0
56794.0,STARLINK-6060,PAYLOAD,2024-06-01 04:24:27,14.98342808,0.0003092,69.9978,154.5064,273.1435,86.937,6.6967e-05,7.06e-06,0.0,0 STARLINK-6060,1 56794U 23078AD  24153.18364888  .00000706  00000-0  66967-4 0  9993,2 56794  69.9978 154.5064 0003092 273.1435  86.9370 14.98342808 56590,6950.153,96.106,574.167,569.869,0.0
56794.0,STARLINK-6060,PAYLOAD,2024-06-01 09:12:49,14.98365148,0.0002921,69.9982,154.0017,273.56,86.5225,0.00031042,3.616e-05,0.0,0 STARLINK-6060,1 56794U 23078AD  24153.38390613  .00003616  00000-0  31042-3 0  9998,2 56794  69.9982 154.0017 0002921 273.5600  86.5225 14.98365148 56627,6950.084,96.105,573.979,569.919,0.0
56794.0,STARLINK-6060,PAYLOAD,2024-06-02 04:26:27,14.98335987,0.0002897,69.9979,151.9817,268.1556,91.9271,-0.00010087,-1.297e-05,0.0,0 STARLINK-6060,1 56794U 23078AD  24154.18504309 -.00001297  00000-0 -10087-3 0  9997,2 56794  69.9979 151.9817 0002897 268.1556  91.9271 14.98335987 56741,6950.174,96.107,574.053,570.026,0.0
56794.0,STARLINK-6060,PAYLOAD,2024-06-02 09:14:51,14.98335834,0.0002898,69.998,151.4768,268.0783,92.0045,-9.9017e-05,-1.274e-05,0.0,0 STARLINK-6060,1 56794U 23078AD  24154.38532194 -.00001274  00000-0 -99017-4 0  9998,2 56794  69.9980 151.4768 0002898 268.0783  92.0045 14.98335834 56512,6950.175,96.107,574.054,570.026,0.0
56794.0,STARLINK-6060,PAYLOAD,2024-06-03 04:28:28,14.98335877,0.0002868,69.9982,149.457,267.5723,92.5108,-0.00011941,-1.518e-05,0.0,0 STARLINK-6060,1 56794U 23078AD  24155.18643790 -.00001518  00000-0 -11941-3 0  9992,2 56794  69.9982 149.4570 0002868 267.5723  92.5108 14.98335877 56890,6950.175,96.107,574.033,570.046,0.0
56794.0,STARLINK-6060,PAYLOAD,2024-06-03 09:16:52,14.98336578,0.0002707,69.9984,148.9517,267.1778,92.9071,-0.00012395,-1.572e-05,0.0,0 STARLINK-6060,1 56794U 23078AD  24155.38671673 -.00001572  00000-0 -12395-3 0  9999,2 56794  69.9984 148.9517 0002707 267.1778  92.9071 14.98336578 56662,6950.173,96.107,573.919,570.156,0.0
56794.0,STARLINK-6060,PAYLOAD,2024-06-03 17:17:31,14.98356548,0.0002949,69.9986,148.1106,256.0741,104.009,-0.0002916,-3.573e-05,0.0,0 STARLINK-6060,1 56794U 23078AD  24155.72050425 -.00003573  00000-0 -29160-3 0  9994,2 56794  69.9986 148.1106 0002949 256.0741 104.0090 14.98356548 56974,6950.111,96.105,574.025,569.926,0.0
56794.0,STARLINK-6060,PAYLOAD,2024-06-04 02:54:13,14.98410059,0.00026,69.9982,147.0997,271.6999,88.3862,0.00087919,0.00010434,0.0,0 STARLINK-6060,1 56794U 23078AD  24156.12098738  .00010434  00000-0  87919-3 0  9996,2 56794  69.9982 147.0997 0002600 271.6999  88.3862 14.98410059 57035,6949.945,96.102,573.617,570.003,0.0
56794.0,STARLINK-6060,PAYLOAD,2024-06-04 09:18:51,14.98325855,0.0002803,69.9986,146.4274,267.1081,92.9757,-7.1584e-05,-9.47e-06,0.0,0 STARLINK-6060,1 56794U 23078AD  24156.38810024 -.00000947  00000-0 -71584-4 0  9996,2 56794  69.9986 146.4274 0002803 267.1081  92.9757 14.98325855 57074,6950.206,96.107,574.019,570.123,0.0
56794.0,STARLINK-6060,PAYLOAD,2024-06-05 09:20:53,14.98322289,0.0002784,69.9988,143.9026,267.3602,92.7239,-0.00012425,-1.575e-05,0.0,0 STARLINK-6060,1 56794U 23078AD  24157.38950491 -.00001575  00000-0 -12425-3 0  9996,2 56794  69.9988 143.9026 0002784 267.3602  92.7239 14.98322289 57220,6950.217,96.107,574.017,570.147,0.0
56794.0,STARLINK-6060,PAYLOAD,2024-06-06 04:34:29,14.98360428,0.0002847,69.9987,141.8822,272.3978,87.6855,-0.0007377,-8.891e-05,0.0,0 STARLINK-6060,1 56794U 23078AD  24158.19061427 -.00008891  00000-0 -73770-3 0  9996,2 56794  69.9987 141.8822 0002847 272.3978  87.6855 14.98360428 57349,6950.099,96.105,573.942,569.985,0.0
56794.0,STARLINK-6060,PAYLOAD,2024-06-06 07:46:44,14.98361614,0.0003249,69.9988,141.5458,278.0831,81.9959,-0.00072931,-8.791e-05,0.0,0 STARLINK-6060,1 56794U 23078AD  24158.32413114 -.00008791  00000-0 -72931-3 0  9992,2 56794  69.9988 141.5458 0003249 278.0831  81.9959 14.98361614 57104,6950.095,96.105,574.218,569.702,0.0
56794.0,STARLINK-6060,PAYLOAD,2024-06-07 07:48:47,14.98316681,0.0002798,69.9992,139.0213,269.9086,90.1753,6.9527e-05,7.36e-06,0.0,0 STARLINK-6060,1 56794U 23078AD  24159.32554622  .00000736  00000-0  69527-4 0  9990,2 56794  69.9992 139.0213 0002798 269.9086  90.1753 14.98316681 57512,6950.234,96.108,574.044,570.154,0.0
56794.0,STARLINK-6060,PAYLOAD,2024-06-07 15:49:27,14.98319684,0.0002811,69.9991,138.1798,269.4984,90.5853,6.6262e-05,6.98e-06,0.0,0 STARLINK-6060,1 56794U 23078AD  24159.65934685  .00000698  00000-0  66262-4 0  9997,2 56794  69.9991 138.1798 0002811 269.4984  90.5853 14.98319684 57305,6950.225,96.108,574.044,570.136,0.0
56794.0,STARLINK-6060,PAYLOAD,2024-06-08 04:38:31,14.98325444,0.0002817,69.9992,136.8332,268.7998,91.2838,7.2657e-05,7.74e-06,0.0,0 STARLINK-6060,1 56794U 23078AD  24160.19342567  .00000774  00000-0  72657-4 0  9990,2 56794  69.9992 136.8332 0002817 268.7998  91.2838 14.98325444 57647,6950.207,96.107,574.03,570.114,0.0
56794.0,STARLINK-6060,PAYLOAD,2024-06-08 07:50:47,14.98327215,0.0002765,69.9992,136.4963,269.175,90.9092,9.5547e-05,1.047e-05,0.0,0 STARLINK-6060,1 56794U 23078AD  24160.32694433  .00001047  00000-0  95547-4 0  9994,2 56794  69.9992 136.4963 0002765 269.1750  90.9092 14.98327215 57406,6950.202,96.107,573.988,570.145,0.0
56794.0,STARLINK-6060,PAYLOAD,2024-06-08 22:16:01,14.98325234,0.0002789,69.9988,134.9811,269.8174,90.2666,3.5247e-06,-5.1e-07,0.0,0 STARLINK-6060,1 56794U 23078AD  24160.92779026 -.00000051  00000-0  35247-5 0  9999,2 56794  69.9988 134.9811 0002789 269.8174  90.2666 14.98325234 57497,6950.208,96.107,574.011,570.134,0.0
56794.0,STARLINK-6060,PAYLOAD,2024-06-09 04:40:33,14.98326857,0.0002824,69.999,134.3075,269.0144,91.0691,1.6313e-05,1.02e-06,0.0,0 STARLINK-6060,1 56794U 23078AD  24161.19482930  .00000102  00000-0  16313-4 0  9992,2 56794  69.9990 134.3075 0002824 269.0144  91.0691 14.98326857 57797,6950.203,96.107,574.03,570.105,0.0
